CCSDS_OMM_VERS = 2.0
CREATION_DATE  = 
ORIGINATOR     = 

OBJECT_NAME    = SL-16 R/B
OBJECT_ID      = 1998-043G
CENTER_NAME    = EARTH
REF_FRAME      = TEME
TIME_SYSTEM    = UTC
MEAN_ELEMENT_THEORY = SGP/SGP4

EPOCH          = 2026-01-11T06:25:08.318496
MEAN_MOTION    = 14.26033964
ECCENTRICITY   = .00098404
INCLINATION    = 98.8165
RA_OF_ASC_NODE = 324.2570
ARG_OF_PERICENTER = 174.8742
MEAN_ANOMALY   = 185.2540

EPHEMERIS_TYPE = 0
CLASSIFICATION_TYPE = U
NORAD_CAT_ID   = 25400
ELEMENT_SET_NO = 999
REV_AT_EPOCH   = 43080
BSTAR          = .51091007E-4
MEAN_MOTION_DOT = .77E-6
MEAN_MOTION_DDOT = 0

CCSDS_OMM_VERS = 2.0
CREATION_DATE  = 
ORIGINATOR     = 

OBJECT_NAME    = SL-16 R/B
OBJECT_ID      = 1998-045B
CENTER_NAME    = EARTH
REF_FRAME      = TEME
TIME_SYSTEM    = UTC
MEAN_ELEMENT_THEORY = SGP/SGP4

EPOCH          = 2026-01-11T03:33:36.068832
MEAN_MOTION    = 14.16180116
ECCENTRICITY   = .00053575
INCLINATION    = 71.0122
RA_OF_ASC_NODE = 302.5814
ARG_OF_PERICENTER = 123.9971
MEAN_ANOMALY   = 236.1662

EPHEMERIS_TYPE = 0
CLASSIFICATION_TYPE = U
NORAD_CAT_ID   = 25407
ELEMENT_SET_NO = 999
REV_AT_EPOCH   = 41895
BSTAR          = -.35014925E-4
MEAN_MOTION_DOT = -.117E-5
MEAN_MOTION_DDOT = 0

CCSDS_OMM_VERS = 2.0
CREATION_DATE  = 
ORIGINATOR     = 

OBJECT_NAME    = ISS (ZARYA)
OBJECT_ID      = 1998-067A
CENTER_NAME    = EARTH
REF_FRAME      = TEME
TIME_SYSTEM    = UTC
MEAN_ELEMENT_THEORY = SGP/SGP4

EPOCH          = 2026-01-11T05:01:26.157792
MEAN_MOTION    = 15.49231619
ECCENTRICITY   = .0007704
INCLINATION    = 51.6335
RA_OF_ASC_NODE = 356.5770
ARG_OF_PERICENTER = 5.3714
MEAN_ANOMALY   = 354.7355

EPHEMERIS_TYPE = 0
CLASSIFICATION_TYPE = U
NORAD_CAT_ID   = 25544
ELEMENT_SET_NO = 999
REV_AT_EPOCH   = 54742
BSTAR          = .2045032E-3
MEAN_MOTION_DOT = .10931E-3
MEAN_MOTION_DDOT = 0

CCSDS_OMM_VERS = 2.0
CREATION_DATE  = 
ORIGINATOR     = 

OBJECT_NAME    = CZ-4B R/B
OBJECT_ID      = 1999-025C
CENTER_NAME    = EARTH
REF_FRAME      = TEME
TIME_SYSTEM    = UTC
MEAN_ELEMENT_THEORY = SGP/SGP4

EPOCH          = 2026-01-11T02:09:04.936608
MEAN_MOTION    = 14.18251748
ECCENTRICITY   = .0037695
INCLINATION    = 98.6730
RA_OF_ASC_NODE = 56.7073
ARG_OF_PERICENTER = 149.3039
MEAN_ANOMALY   = 230.7599

EPHEMERIS_TYPE = 0
CLASSIFICATION_TYPE = U
NORAD_CAT_ID   = 25732
ELEMENT_SET_NO = 999
REV_AT_EPOCH   = 38000
BSTAR          = .54503255E-4
MEAN_MOTION_DOT = .7E-6
MEAN_MOTION_DDOT = 0

CCSDS_OMM_VERS = 2.0
CREATION_DATE  = 
ORIGINATOR     = 

OBJECT_NAME    = OKEAN-O
OBJECT_ID      = 1999-039A
CENTER_NAME    = EARTH
REF_FRAME      = TEME
TIME_SYSTEM    = UTC
MEAN_ELEMENT_THEORY = SGP/SGP4

EPOCH          = 2026-01-11T03:04:16.725504
MEAN_MOTION    = 14.80222201
ECCENTRICITY   = .00016033
INCLINATION    = 97.9559
RA_OF_ASC_NODE = 71.5698
ARG_OF_PERICENTER = 110.4021
MEAN_ANOMALY   = 249.7363

EPHEMERIS_TYPE = 0
CLASSIFICATION_TYPE = U
NORAD_CAT_ID   = 25860
ELEMENT_SET_NO = 999
REV_AT_EPOCH   = 42587
BSTAR          = .11093718E-3
MEAN_MOTION_DOT = .791E-5
MEAN_MOTION_DDOT = 0

CCSDS_OMM_VERS = 2.0
CREATION_DATE  = 
ORIGINATOR     = 

OBJECT_NAME    = SL-16 R/B
OBJECT_ID      = 1999-039B
CENTER_NAME    = EARTH
REF_FRAME      = TEME
TIME_SYSTEM    = UTC
MEAN_ELEMENT_THEORY = SGP/SGP4

EPOCH          = 2026-01-11T03:53:54.683808
MEAN_MOTION    = 14.81637415
ECCENTRICITY   = .00161555
INCLINATION    = 98.0082
RA_OF_ASC_NODE = 70.3096
ARG_OF_PERICENTER = 84.9004
MEAN_ANOMALY   = 275.4052

EPHEMERIS_TYPE = 0
CLASSIFICATION_TYPE = U
NORAD_CAT_ID   = 25861
ELEMENT_SET_NO = 999
REV_AT_EPOCH   = 42834
BSTAR          = .82474917E-4
MEAN_MOTION_DOT = .596E-5
MEAN_MOTION_DDOT = 0

CCSDS_OMM_VERS = 2.0
CREATION_DATE  = 
ORIGINATOR     = 

OBJECT_NAME    = DELTA 2 R/B
OBJECT_ID      = 1999-041E
CENTER_NAME    = EARTH
REF_FRAME      = TEME
TIME_SYSTEM    = UTC
MEAN_ELEMENT_THEORY = SGP/SGP4

EPOCH          = 2026-01-11T04:02:50.172864
MEAN_MOTION    = 14.11531515
ECCENTRICITY   = .0503775
INCLINATION    = 51.7601
RA_OF_ASC_NODE = 170.9598
ARG_OF_PERICENTER = 178.5110
MEAN_ANOMALY   = 181.7462

EPHEMERIS_TYPE = 0
CLASSIFICATION_TYPE = U
NORAD_CAT_ID   = 25876
ELEMENT_SET_NO = 999
REV_AT_EPOCH   = 35490
BSTAR          = .56202382E-3
MEAN_MOTION_DOT = .3263E-4
MEAN_MOTION_DDOT = 0

CCSDS_OMM_VERS = 2.0
CREATION_DATE  = 
ORIGINATOR     = 

OBJECT_NAME    = HELIOS 1B
OBJECT_ID      = 1999-064A
CENTER_NAME    = EARTH
REF_FRAME      = TEME
TIME_SYSTEM    = UTC
MEAN_ELEMENT_THEORY = SGP/SGP4

EPOCH          = 2026-01-11T06:28:25.630176
MEAN_MOTION    = 14.87428455
ECCENTRICITY   = .00003768
INCLINATION    = 98.1749
RA_OF_ASC_NODE = 271.8127
ARG_OF_PERICENTER = 117.5344
MEAN_ANOMALY   = 242.5909

EPHEMERIS_TYPE = 0
CLASSIFICATION_TYPE = U
NORAD_CAT_ID   = 25977
ELEMENT_SET_NO = 999
REV_AT_EPOCH   = 67672
BSTAR          = .23370181E-3
MEAN_MOTION_DOT = .2057E-4
MEAN_MOTION_DDOT = 0

CCSDS_OMM_VERS = 2.0
CREATION_DATE  = 
ORIGINATOR     = 

OBJECT_NAME    = TERRA
OBJECT_ID      = 1999-068A
CENTER_NAME    = EARTH
REF_FRAME      = TEME
TIME_SYSTEM    = UTC
MEAN_ELEMENT_THEORY = SGP/SGP4

EPOCH          = 2026-01-11T06:09:02.083968
MEAN_MOTION    = 14.60941670
ECCENTRICITY   = .00026054
INCLINATION    = 97.9707
RA_OF_ASC_NODE = 66.8514
ARG_OF_PERICENTER = 33.0891
MEAN_ANOMALY   = 41.5317

EPHEMERIS_TYPE = 0
CLASSIFICATION_TYPE = U
NORAD_CAT_ID   = 25994
ELEMENT_SET_NO = 999
REV_AT_EPOCH   = 38669
BSTAR          = .11320437E-3
MEAN_MOTION_DOT = .51E-5
MEAN_MOTION_DDOT = 0

CCSDS_OMM_VERS = 2.0
CREATION_DATE  = 
ORIGINATOR     = 

OBJECT_NAME    = SL-16 R/B
OBJECT_ID      = 2000-006B
CENTER_NAME    = EARTH
REF_FRAME      = TEME
TIME_SYSTEM    = UTC
MEAN_ELEMENT_THEORY = SGP/SGP4

EPOCH          = 2026-01-11T00:10:44.539680
MEAN_MOTION    = 14.15815286
ECCENTRICITY   = .00190058
INCLINATION    = 71.0009
RA_OF_ASC_NODE = 219.1199
ARG_OF_PERICENTER = 269.5350
MEAN_ANOMALY   = 90.3595

EPHEMERIS_TYPE = 0
CLASSIFICATION_TYPE = U
NORAD_CAT_ID   = 26070
ELEMENT_SET_NO = 999
REV_AT_EPOCH   = 34039
BSTAR          = -.75669181E-4
MEAN_MOTION_DOT = -.197E-5
MEAN_MOTION_DDOT = 0

CCSDS_OMM_VERS = 2.0
CREATION_DATE  = 
ORIGINATOR     = 

OBJECT_NAME    = TITAN 4B R/B
OBJECT_ID      = 2000-047B
CENTER_NAME    = EARTH
REF_FRAME      = TEME
TIME_SYSTEM    = UTC
MEAN_ELEMENT_THEORY = SGP/SGP4

EPOCH          = 2026-01-11T05:46:48.323712
MEAN_MOTION    = 15.09029721
ECCENTRICITY   = .00371634
INCLINATION    = 67.9879
RA_OF_ASC_NODE = 201.9866
ARG_OF_PERICENTER = 107.8656
MEAN_ANOMALY   = 252.6552

EPHEMERIS_TYPE = 0
CLASSIFICATION_TYPE = U
NORAD_CAT_ID   = 26474
ELEMENT_SET_NO = 999
REV_AT_EPOCH   = 38424
BSTAR          = .26252708E-3
MEAN_MOTION_DOT = .4096E-4
MEAN_MOTION_DDOT = 0

CCSDS_OMM_VERS = 2.0
CREATION_DATE  = 
ORIGINATOR     = 

OBJECT_NAME    = ENVISAT
OBJECT_ID      = 2002-009A
CENTER_NAME    = EARTH
REF_FRAME      = TEME
TIME_SYSTEM    = UTC
MEAN_ELEMENT_THEORY = SGP/SGP4

EPOCH          = 2026-01-11T07:53:57.936192
MEAN_MOTION    = 14.39012401
ECCENTRICITY   = .00011283
INCLINATION    = 98.3639
RA_OF_ASC_NODE = 326.3260
ARG_OF_PERICENTER = 91.6580
MEAN_ANOMALY   = 27.9804

EPHEMERIS_TYPE = 0
CLASSIFICATION_TYPE = U
NORAD_CAT_ID   = 27386
ELEMENT_SET_NO = 999
REV_AT_EPOCH   = 25092
BSTAR          = .60609295E-4
MEAN_MOTION_DOT = .144E-5
MEAN_MOTION_DDOT = 0

