SL-16 R/B               
1 25400U 98043G   26011.26745739  .00000077  00000+0  51091-4 0  9991
2 25400  98.8165 324.2570 0009840 174.8742 185.2540 14.26033964430805
SL-16 R/B               
1 25407U 98045B   26011.14833413 -.00000117  00000+0 -35015-4 0  9999
2 25407  71.0122 302.5814 0005357 123.9971 236.1662 14.16180116418950
ISS (ZARYA)             
1 25544U 98067A   26011.20933053  .00010931  00000+0  20450-3 0  9992
2 25544  51.6335 356.5770 0007704   5.3714 354.7355 15.49231619547421
CZ-4B R/B               
1 25732U 99025C   26011.08964047  .00000070  00000+0  54503-4 0  9999
2 25732  98.6730  56.7073 0037695 149.3039 230.7599 14.18251748380008
OKEAN-O                 
1 25860U 99039A   26011.12797136  .00000791  00000+0  11094-3 0  9991
2 25860  97.9559  71.5698 0001603 110.4021 249.7363 14.80222201425874
SL-16 R/B               
1 25861U 99039B   26011.16243847  .00000596  00000+0  82475-4 0  9996
2 25861  98.0082  70.3096 0016155  84.9004 275.4052 14.81637415428345
DELTA 2 R/B             
1 25876U 99041E   26011.16863626  .00003263  00000+0  56202-3 0  9990
2 25876  51.7601 170.9598 0503775 178.5110 181.7462 14.11531515354906
HELIOS 1B               
1 25977U 99064A   26011.26974109  .00002057  00000+0  23370-3 0  9997
2 25977  98.1749 271.8127 0000376 117.5344 242.5909 14.87428455676726
TERRA                   
1 25994U 99068A   26011.25627412  .00000510  00000+0  11320-3 0  9995
2 25994  97.9707  66.8514 0002605  33.0891  41.5317 14.60941670386698
SL-16 R/B               
1 26070U 00006B   26011.00745995 -.00000197  00000+0 -75669-4 0  9995
2 26070  71.0009 219.1199 0019005 269.5350  90.3595 14.15815286340392
TITAN 4B R/B            
1 26474U 00047B   26011.24083708  .00004096  00000+0  26253-3 0  9995
2 26474  67.9879 201.9866 0037163 107.8656 252.6552 15.09029721384240
ENVISAT                 
1 27386U 02009A   26011.32914278  .00000144  00000+0  60609-4 0  9996
2 27386  98.3639 326.3260 0001128  91.6580  27.9804 14.39012401250922
